start=new Date('2022-05-11T00:00:00.000Z').valueOf();
sats=[{"COUNTRY_CODE":"US","SITE":"AFETR","TLE_LINE2":"2 52122  53.2174 245.0433 0001486  50.0968 214.7983 15.52862190  3684","TIME_SYSTEM":"UTC","RCS_SIZE":"LARGE","MEAN_MOTION_DDOT":"0.0000000000000","PERIAPSIS":"407.368","APOAPSIS":"409.385","ELEMENT_SET_NO":"999","MEAN_ANOMALY":"214.7983","TLE_LINE1":"1 52122U 22029AL  22130.75001157 -.00704555  00000-0 -12185-1 0  9997","SEMIMAJOR_AXIS":"6786.511","PERIOD":"92.732","NORAD_CAT_ID":"52122","DECAY_DATE":null,"CENTER_NAME":"EARTH","MEAN_MOTION_DOT":"-0.00704555","CLASSIFICATION_TYPE":"U","MEAN_ELEMENT_THEORY":"SGP4","OBJECT_TYPE":"PAYLOAD","OBJECT_ID":"2022-029AL","MEAN_MOTION":"15.52862190","EPOCH":"2022-05-10T18:00:00.999648","FILE":"3439673","GP_ID":"203230332","REF_FRAME":"TEME","ARG_OF_PERICENTER":"50.0968","BSTAR":"-0.01218500000000","ECCENTRICITY":"0.00014860","REV_AT_EPOCH":"368","EPHEMERIS_TYPE":"0","LAUNCH_DATE":"2022-03-19","RA_OF_ASC_NODE":"245.0433","OBJECT_NAME":"STARLINK-3726","INCLINATION":"53.2174"},{"DECAY_DATE":null,"PERIOD":"91.535","NORAD_CAT_ID":"52123","TLE_LINE1":"1 52123U 22029AM  22130.75001157 -.00027507  00000-0 -19241-3 0  9995","SEMIMAJOR_AXIS":"6727.970","MEAN_ANOMALY":"9.1981","APOAPSIS":"351.087","ELEMENT_SET_NO":"999","MEAN_MOTION_DDOT":"0.0000000000000","PERIAPSIS":"348.584","RCS_SIZE":"LARGE","TLE_LINE2":"2 52123  53.2139 243.9824 0001860  26.3150   9.1981 15.73173583  3680","TIME_SYSTEM":"UTC","SITE":"AFETR","COUNTRY_CODE":"US","INCLINATION":"53.2139","OBJECT_NAME":"STARLINK-3725","LAUNCH_DATE":"2022-03-19","RA_OF_ASC_NODE":"243.9824","EPHEMERIS_TYPE":"0","REV_AT_EPOCH":"368","ECCENTRICITY":"0.00018600","BSTAR":"-0.00019241000000","ARG_OF_PERICENTER":"26.3150","REF_FRAME":"TEME","GP_ID":"203230848","FILE":"3439673","EPOCH":"2022-05-10T18:00:00.999648","MEAN_MOTION":"15.73173583","OBJECT_TYPE":"PAYLOAD","OBJECT_ID":"2022-029AM","MEAN_ELEMENT_THEORY":"SGP4","CLASSIFICATION_TYPE":"U","MEAN_MOTION_DOT":"-0.00027507","CENTER_NAME":"EARTH"},{"COUNTRY_CODE":"US","SITE":"AFETR","TLE_LINE2":"2 52124  53.2175 245.0661 0001474  48.7972 217.6872 15.52874560  3689","TIME_SYSTEM":"UTC","RCS_SIZE":"LARGE","MEAN_MOTION_DDOT":"0.0000000000000","PERIAPSIS":"407.340","APOAPSIS":"409.340","ELEMENT_SET_NO":"999","MEAN_ANOMALY":"217.6872","DECAY_DATE":null,"TLE_LINE1":"1 52124U 22029AN  22130.75001157 -.00708927  00000-0 -12262-1 0  9992","SEMIMAJOR_AXIS":"6786.475","PERIOD":"92.731","NORAD_CAT_ID":"52124","CENTER_NAME":"EARTH","CLASSIFICATION_TYPE":"U","OBJECT_TYPE":"PAYLOAD","OBJECT_ID":"2022-029AN","MEAN_ELEMENT_THEORY":"SGP4","MEAN_MOTION_DOT":"-0.00708927","GP_ID":"203230245","REF_FRAME":"TEME","EPOCH":"2022-05-10T18:00:00.999648","MEAN_MOTION":"15.52874560","FILE":"3439673","ARG_OF_PERICENTER":"48.7972","BSTAR":"-0.01226200000000","ECCENTRICITY":"0.00014740","LAUNCH_DATE":"2022-03-19","OBJECT_NAME":"STARLINK-3684","RA_OF_ASC_NODE":"245.0661","REV_AT_EPOCH":"368","EPHEMERIS_TYPE":"0","INCLINATION":"53.2175"},{"INCLINATION":"53.2139","EPHEMERIS_TYPE":"0","REV_AT_EPOCH":"368","OBJECT_NAME":"STARLINK-3727","LAUNCH_DATE":"2022-03-19","RA_OF_ASC_NODE":"243.9808","ECCENTRICITY":"0.00017440","BSTAR":"-0.00018061000000","ARG_OF_PERICENTER":"28.7108","FILE":"3439673","EPOCH":"2022-05-10T18:00:00.999648","MEAN_MOTION":"15.73174985","REF_FRAME":"TEME","GP_ID":"203230762","MEAN_MOTION_DOT":"-0.00025864","MEAN_ELEMENT_THEORY":"SGP4","OBJECT_TYPE":"PAYLOAD","OBJECT_ID":"2022-029AP","CLASSIFICATION_TYPE":"U","CENTER_NAME":"EARTH","PERIOD":"91.535","NORAD_CAT_ID":"52125","SEMIMAJOR_AXIS":"6727.966","TLE_LINE1":"1 52125U 22029AP  22130.75001157 -.00025864  00000-0 -18061-3 0  9990","DECAY_DATE":null,"MEAN_ANOMALY":"7.3755","ELEMENT_SET_NO":"999","APOAPSIS":"351.005","MEAN_MOTION_DDOT":"0.0000000000000","PERIAPSIS":"348.658","RCS_SIZE":"LARGE","TIME_SYSTEM":"UTC","TLE_LINE2":"2 52125  53.2139 243.9808 0001744  28.7108   7.3755 15.73174985  3680","SITE":"AFETR","COUNTRY_CODE":"US"},{"SITE":"AFETR","COUNTRY_CODE":"US","TIME_SYSTEM":"UTC","TLE_LINE2":"2 52126  53.2142 243.9848 0001906  35.0615 359.8905 15.73170591  3684","RCS_SIZE":"LARGE","MEAN_MOTION_DDOT":"0.0000000000000","PERIAPSIS":"348.562","APOAPSIS":"351.126","ELEMENT_SET_NO":"999","MEAN_ANOMALY":"359.8905","NORAD_CAT_ID":"52126","PERIOD":"91.535","SEMIMAJOR_AXIS":"6727.979","TLE_LINE1":"1 52126U 22029AQ  22130.75001157 -.00031749  00000-0 -22291-3 0  9990","DECAY_DATE":null,"CENTER_NAME":"EARTH","MEAN_MOTION_DOT":"-0.00031749","OBJECT_ID":"2022-029AQ","OBJECT_TYPE":"PAYLOAD","MEAN_ELEMENT_THEORY":"SGP4","CLASSIFICATION_TYPE":"U","FILE":"3439673","MEAN_MOTION":"15.73170591","EPOCH":"2022-05-10T18:00:00.999648","REF_FRAME":"TEME","GP_ID":"203230675","ARG_OF_PERICENTER":"35.0615","BSTAR":"-0.00022291000000","ECCENTRICITY":"0.00019060","EPHEMERIS_TYPE":"0","REV_AT_EPOCH":"368","LAUNCH_DATE":"2022-03-19","OBJECT_NAME":"STARLINK-3732","RA_OF_ASC_NODE":"243.9848","INCLINATION":"53.2142"},{"CENTER_NAME":"EARTH","MEAN_MOTION_DOT":"-0.00008858","MEAN_ELEMENT_THEORY":"SGP4","OBJECT_TYPE":"PAYLOAD","OBJECT_ID":"2022-029AR","CLASSIFICATION_TYPE":"U","FILE":"3439673","MEAN_MOTION":"15.73179646","EPOCH":"2022-05-10T18:00:00.999648","REF_FRAME":"TEME","GP_ID":"203230505","ARG_OF_PERICENTER":"37.3307","BSTAR":"-0.00005880300000","ECCENTRICITY":"0.00019510","EPHEMERIS_TYPE":"0","REV_AT_EPOCH":"368","LAUNCH_DATE":"2022-03-19","RA_OF_ASC_NODE":"243.9787","OBJECT_NAME":"STARLINK-3715","INCLINATION":"53.2141","SITE":"AFETR","COUNTRY_CODE":"US","TIME_SYSTEM":"UTC","TLE_LINE2":"2 52127  53.2141 243.9787 0001951  37.3307 359.8961 15.73179646  3681","RCS_SIZE":"LARGE","PERIAPSIS":"348.506","MEAN_MOTION_DDOT":"0.0000000000000","APOAPSIS":"351.131","ELEMENT_SET_NO":"999","MEAN_ANOMALY":"359.8961","PERIOD":"91.534","NORAD_CAT_ID":"52127","TLE_LINE1":"1 52127U 22029AR  22130.75001157 -.00008858  00000-0 -58803-4 0  9995","SEMIMAJOR_AXIS":"6727.953","DECAY_DATE":null},{"TIME_SYSTEM":"UTC","TLE_LINE2":"2 52129  53.2140 243.9760 0002024  29.5255   8.9863 15.73142510  3683","COUNTRY_CODE":"US","SITE":"AFETR","PERIAPSIS":"348.562","MEAN_MOTION_DDOT":"0.0000000000000","RCS_SIZE":"LARGE","MEAN_ANOMALY":"8.9863","ELEMENT_SET_NO":"999","APOAPSIS":"351.286","TLE_LINE1":"1 52129U 22029AT  22130.75001157  .00013679  00000-0  10197-3 0  9995","SEMIMAJOR_AXIS":"6728.059","PERIOD":"91.537","NORAD_CAT_ID":"52129","DECAY_DATE":null,"MEAN_MOTION_DOT":"0.00013679","CLASSIFICATION_TYPE":"U","OBJECT_ID":"2022-029AT","OBJECT_TYPE":"PAYLOAD","MEAN_ELEMENT_THEORY":"SGP4","CENTER_NAME":"EARTH","ARG_OF_PERICENTER":"29.5255","EPOCH":"2022-05-10T18:00:00.999648","MEAN_MOTION":"15.73142510","FILE":"3439673","GP_ID":"203230588","REF_FRAME":"TEME","ECCENTRICITY":"0.00020240","BSTAR":"0.00010197000000","INCLINATION":"53.2140","REV_AT_EPOCH":"368","EPHEMERIS_TYPE":"0","OBJECT_NAME":"STARLINK-3661","LAUNCH_DATE":"2022-03-19","RA_OF_ASC_NODE":"243.9760"},{"ECCENTRICITY":"0.00013320","BSTAR":"0.00005528800000","INCLINATION":"53.2139","REV_AT_EPOCH":"368","EPHEMERIS_TYPE":"0","RA_OF_ASC_NODE":"243.9746","LAUNCH_DATE":"2022-03-19","OBJECT_NAME":"STARLINK-3711","MEAN_MOTION_DOT":"0.00007139","CLASSIFICATION_TYPE":"U","OBJECT_TYPE":"PAYLOAD","MEAN_ELEMENT_THEORY":"SGP4","OBJECT_ID":"2022-029AV","CENTER_NAME":"EARTH","ARG_OF_PERICENTER":"44.9515","EPOCH":"2022-05-10T18:00:00.999648","MEAN_MOTION":"15.73178853","FILE":"3439673","GP_ID":"203230419","REF_FRAME":"TEME","MEAN_ANOMALY":"354.0235","APOAPSIS":"350.717","ELEMENT_SET_NO":"999","TLE_LINE1":"1 52131U 22029AV  22130.75001157  .00007139  00000-0  55288-4 0  9993","SEMIMAJOR_AXIS":"6727.955","PERIOD":"91.534","NORAD_CAT_ID":"52131","DECAY_DATE":null,"TIME_SYSTEM":"UTC","TLE_LINE2":"2 52131  53.2139 243.9746 0001332  44.9515 354.0235 15.73178853  3686","COUNTRY_CODE":"US","SITE":"AFETR","PERIAPSIS":"348.924","MEAN_MOTION_DDOT":"0.0000000000000","RCS_SIZE":"LARGE"},{"TIME_SYSTEM":"UTC","TLE_LINE2":"2 52132  53.2140 243.9780 0001748  33.8792   3.8951 15.73189806  3686","SITE":"AFETR","COUNTRY_CODE":"US","PERIAPSIS":"348.613","MEAN_MOTION_DDOT":"0.0000000000000","RCS_SIZE":"LARGE","MEAN_ANOMALY":"3.8951","APOAPSIS":"350.965","ELEMENT_SET_NO":"999","DECAY_DATE":null,"PERIOD":"91.534","NORAD_CAT_ID":"52132","SEMIMAJOR_AXIS":"6727.924","TLE_LINE1":"1 52132U 22029AW  22130.75001157  .00004259  00000-0  34765-4 0  9991","OBJECT_ID":"2022-029AW","OBJECT_TYPE":"PAYLOAD","MEAN_ELEMENT_THEORY":"SGP4","CLASSIFICATION_TYPE":"U","MEAN_MOTION_DOT":"0.00004259","CENTER_NAME":"EARTH","ARG_OF_PERICENTER":"33.8792","REF_FRAME":"TEME","GP_ID":"203230333","FILE":"3439673","MEAN_MOTION":"15.73189806","EPOCH":"2022-05-10T18:00:00.999648","ECCENTRICITY":"0.00017480","BSTAR":"0.00003476500000","INCLINATION":"53.2140","LAUNCH_DATE":"2022-03-19","RA_OF_ASC_NODE":"243.9780","OBJECT_NAME":"STARLINK-3718","EPHEMERIS_TYPE":"0","REV_AT_EPOCH":"368"},{"BSTAR":"-0.00012811000000","ECCENTRICITY":"0.00017940","LAUNCH_DATE":"2022-03-19","OBJECT_NAME":"STARLINK-3707","RA_OF_ASC_NODE":"243.9719","EPHEMERIS_TYPE":"0","REV_AT_EPOCH":"368","INCLINATION":"53.2139","CENTER_NAME":"EARTH","OBJECT_ID":"2022-029AX","OBJECT_TYPE":"PAYLOAD","MEAN_ELEMENT_THEORY":"SGP4","CLASSIFICATION_TYPE":"U","MEAN_MOTION_DOT":"-0.00018530","REF_FRAME":"TEME","GP_ID":"203230849","FILE":"3439673","MEAN_MOTION":"15.73159808","EPOCH":"2022-05-10T18:00:00.999648","ARG_OF_PERICENTER":"27.5459","APOAPSIS":"351.082","ELEMENT_SET_NO":"999","MEAN_ANOMALY":"12.5698","DECAY_DATE":null,"NORAD_CAT_ID":"52133","PERIOD":"91.536","SEMIMAJOR_AXIS":"6728.010","TLE_LINE1":"1 52133U 22029AX  22130.75001157 -.00018530  00000-0 -12811-3 0  9998","SITE":"AFETR","COUNTRY_CODE":"US","TLE_LINE2":"2 52133  53.2139 243.9719 0001794  27.5459  12.5698 15.73159808  3682","TIME_SYSTEM":"UTC","RCS_SIZE":"LARGE","MEAN_MOTION_DDOT":"0.0000000000000","PERIAPSIS":"348.668"}];
